{"fetched_at":"2026-03-29T16:36:15Z","count":15609,"tles":[{"name":"STARLINK-11725 [DTC]","line1":"1 64125U 25111C   26087.73678786  .00365873  00000+0  26907-2 0  9990","line2":"2 64125  42.9994 219.1354 0001722 350.2473   9.8361 15.71196094 49630","category":"Starlink"}]}