{
  "norad_id": 64125,
  "name": "STARLINK-11725 [DTC]",
  "history": [
    {
      "epoch": "2026-03-28T17:40:58.471104",
      "apogee_km": 356.63720092185395,
      "perigee_km": 354.3177400813456,
      "latitude_deg": 16.138579780872387,
      "longitude_deg": -56.7683654401917,
      "semi_major_axis_km": 6733.6144705015995,
      "eccentricity": 0.00017223,
      "inclination_deg": 42.9994,
      "raan_deg": 219.1354,
      "arg_perigee_deg": 350.2473,
      "mean_anomaly_deg": 9.8361,
      "mean_motion_rev_day": 15.71196094
    }
  ]
}